NORAD_CAT_ID,OBJECT_NAME,OBJECT_TYPE,EPOCH,MEAN_MOTION,ECCENTRICITY,INCLINATION,RA_OF_ASC_NODE,ARG_OF_PERICENTER,MEAN_ANOMALY,BSTAR,MEAN_MOTION_DOT,MEAN_MOTION_DDOT,TLE_LINE0,TLE_LINE1,TLE_LINE2,SEMIMAJOR_AXIS,PERIOD,APOGEE,PERIGEE,DECAYED
51892.0,STARLINK-3587,PAYLOAD,2022-07-21 14:00:01,15.08849747,0.0002353,53.2171,196.7288,44.0979,53.6023,-0.0014226,-0.00022865,0.0,0 STARLINK-3587,1 51892U 22022AS  22202.58335648 -.00022865  00000-0 -14226-2 0  9995,2 51892  53.2171 196.7288 0002353  44.0979  53.6023 15.08849747 22896,6917.851,95.437,541.3430000000002,538.0880000000002,0.0
51892.0,STARLINK-3587,PAYLOAD,2022-07-21 22:00:00,15.08824744,0.000223,53.2171,195.2312,49.6493,59.5895,0.0022328,0.00035412,0.0,0 STARLINK-3587,1 51892U 22022AS  22202.91667824  .00035412  00000-0  22328-2 0  9998,2 51892  53.2171 195.2312 0002230  49.6493  59.5895 15.08824744  1309,6917.927,95.439,541.335,538.249,0.0
51892.0,STARLINK-3587,PAYLOAD,2022-07-22 06:00:00,15.08848975,0.0002415,53.217,193.7366,46.9754,73.8588,-0.00091021,-0.00014749,0.0,0 STARLINK-3587,1 51892U 22022AS  22203.25001157 -.00014749  00000-0 -91021-3 0  9996,2 51892  53.2170 193.7366 0002415  46.9754  73.8588 15.08848975  1305,6917.853,95.437,541.389,538.047,0.0
51892.0,STARLINK-3587,PAYLOAD,2022-07-22 22:00:00,15.08851843,0.0002284,53.2169,190.7422,50.5676,93.4749,-0.00076809,-0.00012496,0.0,0 STARLINK-3587,1 51892U 22022AS  22203.91667824 -.00012496  00000-0 -76809-3 0  9992,2 51892  53.2169 190.7422 0002284  50.5676  93.4749 15.08851843  1306,6917.844,95.437,541.289,538.129,0.0
51892.0,STARLINK-3587,PAYLOAD,2022-07-23 14:00:01,15.0884697,0.0002414,53.2168,187.7506,45.4858,121.8017,-0.0018104,-0.00028992,0.0,0 STARLINK-3587,1 51892U 22022AS  22204.58335648 -.00028992  00000-0 -18104-2 0  9993,2 51892  53.2168 187.7506 0002414  45.4858 121.8017 15.08846970  1303,6917.859,95.437,541.394,538.054,0.0
51892.0,STARLINK-3587,PAYLOAD,2022-07-23 22:00:00,15.088289,0.0002334999999999,53.217,186.2532,50.7171,128.1023,0.0018484,0.00029243,0.0,0 STARLINK-3587,1 51892U 22022AS  22204.91667824  .00029243  00000-0  18484-2 0  9993,2 51892  53.2170 186.2532 0002335  50.7171 128.1023 15.08828900  1308,6917.9140000000025,95.438,541.395,538.164,0.0
51892.0,STARLINK-3587,PAYLOAD,2022-07-24 06:00:00,15.08839897,0.0002534,53.217,184.7586,47.0811,143.3342,2.8819e-05,1.7e-06,0.0,0 STARLINK-3587,1 51892U 22022AS  22205.25001157  .00000170  00000-0  28819-4 0  9995,2 51892  53.2170 184.7586 0002534  47.0811 143.3342 15.08839897 23293,6917.880999999999,95.438,541.499,537.993,0.0
51892.0,STARLINK-3587,PAYLOAD,2022-07-24 14:00:01,15.08872911,0.0002453,53.2171,183.2616,46.5228,155.4791,-0.0047891,-0.00075778,0.0,0 STARLINK-3587,1 51892U 22022AS  22205.58334491 -.00075778  00000-0 -47891-2 0  9998,2 51892  53.2171 183.2616 0002453  46.5228 155.4791 15.08872911  1302,6917.78,95.435,541.342,537.948,0.0
51892.0,STARLINK-3587,PAYLOAD,2022-07-24 22:00:00,15.08817042,0.000234,53.2174,181.7642,50.4226,163.1835,0.0015611,0.00024629,0.0,0 STARLINK-3587,1 51892U 22022AS  22205.91667824  .00024629  00000-0  15611-2 0  9996,2 51892  53.2174 181.7642 0002340  50.4226 163.1835 15.08817042  1303,6917.951,95.439,541.434,538.197,0.0
51892.0,STARLINK-3587,PAYLOAD,2022-07-25 06:00:00,15.08820477,0.0002549999999999,53.2175,180.2697,46.5934,178.5913,0.00027449,4.081e-05,0.0,0 STARLINK-3587,1 51892U 22022AS  22206.25001157  .00004081  00000-0  27449-3 0  9998,2 51892  53.2175 180.2697 0002550  46.5934 178.5913 15.08820477 23445,6917.94,95.439,541.569,538.0409999999998,0.0
51892.0,STARLINK-3587,PAYLOAD,2022-07-25 14:00:01,15.08847054,0.000247,53.2176,178.7725,47.3726,189.3826,-0.0021891,-0.00034968,0.0,0 STARLINK-3587,1 51892U 22022AS  22206.58334491 -.00034968  00000-0 -21891-2 0  9997,2 51892  53.2176 178.7725 0002470  47.3726 189.3826 15.08847054  1303,6917.859,95.437,541.433,538.015,0.0
51892.0,STARLINK-3587,PAYLOAD,2022-07-25 22:00:00,15.08830168,0.0002401999999999,53.2179,177.2753,52.3153,196.0269,0.0012603,0.00019821,0.0,0 STARLINK-3587,1 51892U 22022AS  22206.91667824  .00019821  00000-0  12603-2 0  9993,2 51892  53.2179 177.2753 0002402  52.3153 196.0269 15.08830168  1300,6917.91,95.438,541.437,538.114,0.0
51892.0,STARLINK-3587,PAYLOAD,2022-07-26 14:00:01,15.08856555,0.0002496,53.2179,174.2835,49.5709,221.9486,-0.0022212,-0.00035483,0.0,0 STARLINK-3587,1 51892U 22022AS  22207.58334491 -.00035483  00000-0 -22212-2 0  9999,2 51892  53.2179 174.2835 0002496  49.5709 221.9486 15.08856555 23644,6917.83,95.437,541.4209999999998,537.9680000000002,0.0
51892.0,STARLINK-3587,PAYLOAD,2022-07-26 22:00:00,15.0884303,0.0002429,53.2182,172.7865,54.4732,228.6434,0.00091356,0.00014283,0.0,0 STARLINK-3587,1 51892U 22022AS  22207.91667824  .00014283  00000-0  91356-3 0  9994,2 51892  53.2182 172.7865 0002429  54.4732 228.6434 15.08843030  1301,6917.871,95.437,541.4159999999998,538.056,0.0
51892.0,STARLINK-3587,PAYLOAD,2022-07-27 06:00:02,15.08837933,0.0002612,53.2182,171.2919,50.2775,244.5126,0.00094938,0.00014853,0.0,0 STARLINK-3587,1 51892U 22022AS  22208.25002315  .00014853  00000-0  94938-3 0  9992,2 51892  53.2182 171.2919 0002612  50.2775 244.5126 15.08837933 23742,6917.887,95.438,541.559,537.945,0.0
51892.0,STARLINK-3587,PAYLOAD,2022-07-27 14:00:01,15.08874839,0.0002452,53.218,169.7946,51.2685,255.0541,-0.0048498,-0.00076729,0.0,0 STARLINK-3587,1 51892U 22022AS  22208.58334491 -.00076729  00000-0 -48498-2 0  9992,2 51892  53.2180 169.7946 0002452  51.2685 255.0541 15.08874839  1307,6917.774,95.435,541.335,537.943,0.0
51892.0,STARLINK-3587,PAYLOAD,2022-07-27 22:00:00,15.08830581,0.0002355999999999,53.2183,168.2978,55.2101,262.7143,0.00051286,7.881e-05,0.0,0 STARLINK-3587,1 51892U 22022AS  22208.91667824  .00007881  00000-0  51286-3 0  9999,2 51892  53.2183 168.2978 0002356  55.2101 262.7143 15.08830581  1308,6917.909000000002,95.438,541.404,538.144,0.0
51892.0,STARLINK-3587,PAYLOAD,2022-07-28 14:00:01,15.08844731,0.0002449,53.218,165.3059,53.3564,287.7366,-0.0016212,-0.00026002,0.0,0 STARLINK-3587,1 51892U 22022AS  22209.58334491 -.00026002  00000-0 -16212-2 0  9991,2 51892  53.2180 165.3059 0002449  53.3564 287.7366 15.08844731  1304,6917.866,95.437,541.425,538.0369999999998,0.0
51892.0,STARLINK-3587,PAYLOAD,2022-07-28 22:00:00,15.0884501,0.0002417,53.2182,163.8094,57.5225,295.1567,0.00010355,1.36e-05,0.0,0 STARLINK-3587,1 51892U 22022AS  22209.91667824  .00001360  00000-0  10355-3 0  9998,2 51892  53.2182 163.8094 0002417  57.5225 295.1567 15.08845010  1300,6917.865,95.437,541.4019999999998,538.058,0.0
51892.0,STARLINK-3587,PAYLOAD,2022-07-29 00:00:00,15.08857289,0.0002461999999999,53.2181,163.4359,56.2571,29.3191,-0.0017573,-0.00028162,0.0,0 STARLINK-3587,1 51892U 22022AS  22210.00001157 -.00028162  00000-0 -17573-2 0  9990,2 51892  53.2181 163.4359 0002462  56.2571  29.3191 15.08857289 24013,6917.828,95.436,541.396,537.989,0.0
51892.0,STARLINK-3587,PAYLOAD,2022-07-29 14:00:01,15.08851414,0.0002485999999999,53.218,160.8171,55.5322,320.3393,-0.0014111,-0.00022684,0.0,0 STARLINK-3587,1 51892U 22022AS  22210.58334491 -.00022684  00000-0 -14111-2 0  9991,2 51892  53.2180 160.8171 0002486  55.5322 320.3393 15.08851414  1306,6917.846,95.437,541.43,537.991,0.0
51892.0,STARLINK-3587,PAYLOAD,2022-07-29 22:00:00,15.08856607,0.0002447,53.2182,159.3208,58.1246,329.3423,-0.0028459,-0.00045319,0.0,0 STARLINK-3587,1 51892U 22022AS  22210.91667824 -.00045319  00000-0 -28459-2 0  9997,2 51892  53.2182 159.3208 0002447  58.1246 329.3423 15.08856607 24153,6917.83,95.437,541.387,538.002,0.0
51892.0,STARLINK-3587,PAYLOAD,2022-07-30 14:00:01,15.08734279,0.0002492,53.2177,156.3239,56.8671,353.8046,0.0096388,0.00156082,0.0,0 STARLINK-3587,1 51892U 22022AS  22211.58334491  .00156082  00000-0  96388-2 0  9996,2 51892  53.2177 156.3239 0002492  56.8671 353.8046 15.08734279  1300,6918.204000000002,95.444,541.793,538.345,0.0
51892.0,STARLINK-3587,PAYLOAD,2022-07-30 22:00:00,15.08843039,0.0002396999999999,53.2184,154.8321,60.6496,1.6019,-0.00074457,-0.0001211999999999,0.0,0 STARLINK-3587,1 51892U 22022AS  22211.91667824 -.00012120  00000-0 -74457-3 0  9992,2 51892  53.2184 154.8321 0002397  60.6496   1.6019 15.08843039  1308,6917.871,95.437,541.394,538.078,0.0
51892.0,STARLINK-3587,PAYLOAD,2022-07-31 06:00:02,15.08814339,0.0002532,53.2185,153.3373,56.1774,17.7367,0.0025994,0.00041296,0.0,0 STARLINK-3587,1 51892U 22022AS  22212.25002315  .00041296  00000-0  25994-2 0  9993,2 51892  53.2185 153.3373 0002532  56.1774  17.7367 15.08814339 24355,6917.959,95.439,541.575,538.072,0.0
51892.0,STARLINK-3587,PAYLOAD,2022-07-31 14:00:01,15.08837948,0.0002435,53.2187,151.8395,59.4576,25.9777,-0.00015048,-2.682e-05,0.0,0 STARLINK-3587,1 51892U 22022AS  22212.58334491 -.00002682  00000-0 -15048-3 0  9990,2 51892  53.2187 151.8395 0002435  59.4576  25.9777 15.08837948  1309,6917.887,95.438,541.436,538.067,0.0
51892.0,STARLINK-3587,PAYLOAD,2022-07-31 22:00:00,15.08857658,0.0002501999999999,53.2188,150.3433,61.5861,35.4365,-0.0010159,-0.00016429,0.0,0 STARLINK-3587,1 51892U 22022AS  22212.91667824 -.00016429  00000-0 -10159-2 0  9997,2 51892  53.2188 150.3433 0002502  61.5861  35.4365 15.08857658 24453,6917.826,95.436,541.422,537.961,0.0
51892.0,STARLINK-3587,PAYLOAD,2022-08-01 14:00:01,15.08826748,0.0002408,53.2191,147.3507,60.0529,60.188,-9.0638e-05,-1.73e-05,0.0,0 STARLINK-3587,1 51892U 22022AS  22213.58334491 -.00001730  00000-0 -90638-4 0  9993,2 51892  53.2191 147.3507 0002408  60.0529  60.1880 15.08826748  1307,6917.920999999999,95.438,541.452,538.12,0.0
51892.0,STARLINK-3587,PAYLOAD,2022-08-01 22:00:00,15.08846701,0.0002478,53.2192,145.8546,61.7775,70.03699999999999,-0.0012057,-0.0001943,0.0,0 STARLINK-3587,1 51892U 22022AS  22213.91667824 -.00019430  00000-0 -12057-2 0  9992,2 51892  53.2192 145.8546 0002478  61.7775  70.0370 15.08846701  1307,6917.86,95.437,541.439,538.011,0.0
